P/2012 O2 (McNaught),e,24.5308,120.7531,183.5163,3.613796,0.1434692,0.53412442,159.9521,07/12.0/2015,2000,g 17.0,4.0
# From MPC 82720
P/2012 O3 (McNaught),e,16.5777,336.4069,344.7135,4.581434,0.1005083,0.64592873,106.7698,07/12.0/2015,2000,g 16.5,4.0
# From MPC 90767
C/2012 Q1 (Kowalski),e,45.2252,184.4277,139.1211,26.00517,0.0074322,0.63554372,9.3029,07/12.0/2015,2000,g  4.0,4.0
# From MPC 89726
C/2012 S1 (ISON),h,11/28.6223/2013,62.0900,295.7806,345.5969,1.000265,0.012934,2000,8.5,3.2
# From MPC 82720
P/2012 S2 (La Sagra),e,8.5941,52.1444,312.1176,4.408935,0.1064642,0.69198651,112.5761,07/12.0/2015,2000,g 17.0,4.0
# From MPC 88327
C/2012 S3 (PANSTARRS),h,08/30.9154/2013,112.9346,121.3029,183.7039,1.000114,2.307428,2000,10.0,4.0
# From MPC 88327
C/2012 S4 (PANSTARRS),h,06/27.9873/2013,126.5590,173.1152,163.6016,1.000468,4.347206,2000,8.5,4.0
# From MPC 82720
P/2012 SB6 (Lemmon),e,11.0437,9.1338,12.4276,3.896923,0.1281213,0.38851963,125.9676,07/12.0/2015,2000,g 14.0,4.0
# From MPC 88694
P/2012 T1 (PANSTARRS),e,11.0570,85.7312,300.0215,3.149061,0.1763731,0.23718839,182.6566,07/12.0/2015,2000,g 15.0,4.0
# From MPC 82320
P/2012 T2 (PANSTARRS),e,12.5566,73.7516,310.8622,5.745654,0.0715640,0.16093892,57.8137,07/12.0/2015,2000,g 10.0,4.0
# From MPC 80900
P/2012 T3 (PANSTARRS),e,9.5428,114.4067,195.5302,6.167307,0.0643518,0.61471864,75.5370,07/12.0/2015,2000,g 15.0,4.0
# From MPC 84023
C/2012 T4 (McNaught),e,24.0962,99.4274,219.8877,121.2930,0.0007378,0.98387386,0.0000,10/10.4761/2012,2000,g 13.5,4.0
# From MPC 84023
C/2012 T5 (Bressi),h,02/24.0744/2013,72.1541,230.4540,318.1144,1.000360,0.322389,2000,13.0,4.0
# From MPC 82720
C/2012 T6 (Kowalski),e,33.3157,186.1332,198.0390,14.16254,0.0184924,0.87476785,19.4279,07/12.0/2015,2000,g 15.0,4.0
# From MPC 87914
P/2012 TK8 (Tenagra),e,6.2850,289.5809,127.0329,4.178253,0.1154016,0.26503082,92.0293,07/12.0/2015,2000,g 13.0,4.0
# From MPC 94670
C/2012 U1 (PANSTARRS),e,56.3391,26.9793,70.1139,7117,0.0000016,0.99926033,0.0000,07/05.2225/2014,2000,g  7.5,4.0
# From MPC 82720
P/2012 U2 (PANSTARRS),e,10.6677,185.3407,229.2051,7.227200,0.0507281,0.50279739,48.7239,07/12.0/2015,2000,g 12.5,4.0
# From MPC 84024
P/2012 US27 (Siding Spring),e,39.2873,49.1944,1.2149,5.173538,0.0837573,0.64797383,74.0367,07/12.0/2015,2000,g 13.5,4.0
# From MPC 84932
C/2012 V1 (PANSTARRS),e,157.8393,85.3699,123.2560,4054,0.0000038,0.99948500,0.0000,07/21.3768/2013,2000,g 12.0,4.0
# From MPC 88695
C/2012 V2 (LINEAR),e,67.1646,262.1750,217.3479,710.3592,0.0000521,0.99794997,0.0000,08/16.4987/2013,2000,g  9.0,4.0
# From MPC 82721
P/2012 WA34 (Lemmon-PANSTARRS),e,6.1199,94.5157,352.8679,4.786193,0.0941280,0.33708489,84.7353,07/12.0/2015,2000,g 13.5,4.0
# From MPC 94670
C/2012 X1 (LINEAR),e,44.3638,113.1379,132.0924,157.4048,0.0004991,0.98984676,0.0000,02/21.6525/2014,2000,g  4.8,3.6
# From MPC 88327
C/2012 X2 (PANSTARRS),e,34.1229,271.0310,215.7223,20.61652,0.0105288,0.76952334,8.7620,07/12.0/2015,2000,g  9.0,4.0
# From MPC 83521
C/2012 Y1 (LINEAR),e,20.9344,193.2107,268.9569,37.96377,0.0042136,0.94677935,3.8129,07/12.0/2015,2000,g 15.0,4.0
# From MPC 83521
C/2012 Y3 (McNaught),e,73.4496,122.6569,235.7244,28.06143,0.0066304,0.93680171,6.9793,07/12.0/2015,2000,g 11.0,4.0
# From MPEC 2015-N31
C/2013 A1 (Siding Spring),h,10/25.2841/2014,129.0427,300.9768,2.4174,1.000261,1.398769,2000,8.2,2.4
# From MPC 84024
P/2013 A2 (Scotti),e,3.3655,355.8061,134.6601,4.005219,0.1229602,0.45579656,108.7528,07/12.0/2015,2000,g 15.5,4.0
# From MPC 82721
P/2013 AL76 (Catalina),e,144.8653,145.9492,27.2630,6.502771,0.0594369,0.68485147,55.9030,07/12.0/2015,2000,g 16.0,4.0
# From MPC 87915
C/2013 B2 (Catalina),h,07/01.5663/2013,43.4621,331.9536,156.4888,1.001562,3.736378,2000,11.0,4.0
# From MPEC 2015-N31
C/2013 C2 (Tenagra),e,21.3395,247.5232,308.7725,16.05971,0.0153143,0.43143301,359.2523,07/12.0/2015,2000,g  4.0,4.0
# From MPC 86642
P/2013 CU129 (PANSTARRS),e,12.1507,46.2112,211.9433,2.877652,0.2019048,0.72211561,142.1669,07/12.0/2015,2000,g 18.0,2.0
# From MPC 84024
C/2013 D1 (Holvorcem),e,10.0919,294.9686,252.6797,11.27200,0.0260437,0.78171755,21.3301,07/12.0/2015,2000,g 14.0,4.0
# From MPC 90270
C/2013 E1 (McNaught),h,06/14.2228/2013,158.7165,134.0356,311.5947,1.000135,7.788010,2000,5.5,4.0
# From MPC 88327
C/2013 E2 (Iwamoto),e,21.8689,182.4948,95.7351,218.5005,0.0003052,0.99354210,0.0000,03/09.0366/2013,2000,g 11.5,4.0
# From MPC 88695
P/2013 EW90 (Tenagra),e,31.8062,160.3362,346.3652,4.110651,0.1182601,0.19633675,118.4420,07/12.0/2015,2000,g 12.0,4.0
# From MPC 84626
C/2013 F1 (Boattini),h,12/02.5179/2012,79.6264,30.0938,92.0136,1.002669,1.860632,2000,13.0,4.0
# From MPC 88695
C/2013 F2 (Catalina),e,61.7740,344.2676,123.1012,2058,0.0000106,0.99697655,0.0000,04/19.5890/2013,2000,g  7.0,4.0
# From MPC 84933
C/2013 F3 (McNaught),e,85.4549,266.0926,18.7260,593.7778,0.0000681,0.99620687,0.0000,05/25.0444/2013,2000,g 12.0,4.0
# From MPC 91612
P/2013 G1 (Kowalski),e,5.4694,221.4582,51.2122,6.876747,0.0546550,0.51256090,31.6035,07/12.0/2015,2000,g 11.0,4.0
# From MPC 84933
C/2013 G2 (McNaught),h,12/06.4265/2012,95.9835,274.0906,293.8530,1.000206,2.151286,2000,11.5,4.0
# From MPEC 2015-N31
C/2013 G3 (PANSTARRS),h,11/15.2157/2014,64.6703,208.1187,76.5037,1.000699,3.852202,2000,9.0,4.0
# From MPC 84025
P/2013 G4 (PANSTARRS),e,5.9252,339.7413,214.5445,4.434591,0.1055416,0.41083496,93.0461,07/12.0/2015,2000,g 15.0,4.0
# From MPC 84318
C/2013 G5 (Catalina),h,09/01.2765/2013,40.6032,144.2325,165.6894,1.000004,0.928982,2000,14.0,4.0
# From MPC 87478
C/2013 G6 (Lemmon),e,124.0901,44.5697,215.7133,357.5207,0.0001458,0.99426696,0.0000,07/25.1187/2013,2000,g 13.5,4.0
# From MPEC 2015-N31
C/2013 G7 (McNaught),e,105.0989,48.3871,218.2788,1549,0.0000162,0.99698058,0.0000,03/18.7755/2014,2000,g  7.5,4.0
# From MPC 90767
C/2013 G8 (PANSTARRS),e,27.6206,240.9956,80.1440,1936,0.0000116,0.99734476,0.0000,11/14.5593/2013,2000,g  8.5,4.0
# From MPC 94670
C/2013 G9 (Tenagra),h,01/15.0255/2015,146.2350,35.6945,204.9807,1.001090,5.337777,2000,7.0,4.0
# From MPC 84933
C/2013 H1 (La Sagra),e,27.0815,84.9484,136.5874,189.3832,0.0003782,0.98602840,0.0000,05/19.7968/2013,2000,g 13.0,4.0
# From MPC 94670
C/2013 H2 (Boattini),e,128.3899,262.7328,35.9826,26774,0.0000002,0.99971992,0.0000,01/22.9610/2014,2000,g  6.5,4.0
# From MPC 91613
P/2013 J2 (McNaught),e,15.4954,289.3943,37.8963,6.239519,0.0632379,0.65560516,43.5190,07/12.0/2015,2000,g 13.0,4.0
# From MPC 87916
C/2013 J3 (McNaught),e,118.2090,200.7520,320.9540,1215,0.0000233,0.99671507,0.0000,02/22.5142/2013,2000,g 10.0,4.0
# From MPC 87066
P/2013 J4 (PANSTARRS),e,5.0352,84.0011,118.7706,2.475100,0.2531133,0.23099371,359.9443,11/04.0/2013,2000,g 14.0,4.0
# From MPC 84319
C/2013 J5 (Boattini),e,136.0081,256.7517,19.1277,1627,0.0000150,0.99698370,0.0000,11/29.3164/2012,2000,g 10.0,4.0
# From MPC 84627
C/2013 J6 (Catalina),e,85.0281,68.3970,125.6143,59.68037,0.0021377,0.95954130,1.7604,07/12.0/2015,2000,g 14.5,4.0
# From MPC 84319
C/2013 K1 (Christensen),e,42.3472,125.8959,171.3226,77.30906,0.0014500,0.98773563,0.0000,05/30.0003/2013,2000,g 18.0,4.0
# From MPC 87916
C/2013 L2 (Catalina),e,106.7757,285.8626,1.8393,8246,0.0000013,0.99940964,0.0000,05/10.2892/2012,2000,g  8.0,4.0
# From MPC 86229
P/2013 N3 (PANSTARRS),e,2.1708,17.6748,323.9228,7.414877,0.0488144,0.59155362,25.1592,07/12.0/2015,2000,g 13.0,4.0
# From MPC 88328
C/2013 N4 (Borisov),e,37.0345,322.5946,142.3383,48.00797,0.0029630,0.97475070,0.0000,08/21.4122/2013,2000,g 12.0,4.0
# From MPC 85834
P/2013 N5 (PANSTARRS),e,23.3164,187.3072,176.8728,6.825131,0.0552761,0.73166742,40.9004,07/12.0/2015,2000,g 17.0,4.0
# From MPC 87479
P/2013 O2 (PANSTARRS),e,13.3214,207.5661,213.6403,3.822407,0.1318860,0.43960155,75.5664,07/12.0/2015,2000,g 14.0,4.0
# From MPC 90767
C/2013 O3 (McNaught),e,102.8327,276.7407,337.9163,743.7704,0.0000486,0.99572614,0.0000,09/09.7762/2013,2000,g 11.5,4.0
# From MPC 85834
P/2013 P1 (PANSTARRS),e,18.7071,160.8039,137.9851,8.569714,0.0392875,0.60473514,34.0396,07/12.0/2015,2000,g 12.0,4.0
# From MPC 93584
C/2013 P2 (PANSTARRS),e,125.5569,2.0352,105.0123,1927,0.0000117,0.99852778,0.0000,02/17.0533/2014,2000,g 11.5,4.0
# From MPC 92272
C/2013 P3 (Palomar),h,11/23.5228/2014,93.9174,177.2758,177.1668,1.001227,8.646226,2000,5.5,4.0
# From MPC 92980
C/2013 P4 (PANSTARRS),e,4.2654,256.5967,113.5530,14.73739,0.0174210,0.59512556,5.8173,07/12.0/2015,2000,g  7.5,4.0
# From MPC 88696
C/2013 PE67 (Catalina-Spacewatch),e,116.7683,325.9446,60.0101,56.07017,0.0023475,0.96663096,1.3632,07/12.0/2015,2000,g 14.0,4.0
# From MPC 94279
C/2013 R1 (Lovejoy),e,64.0102,70.6997,67.1801,534.8816,0.0000797,0.99848203,0.0000,12/22.7538/2013,2000,g  7.0,4.0
# From MPC 94671
P/2013 R3 (Catalina-PANSTARRS),e,0.8966,342.7425,8.8060,3.040999,0.1858573,0.27311859,130.8424,07/12.0/2015,2000,g 14.0,4.0
# From unp
P/2013 R3-A (Catalina-PANSTARRS),e,0.8960,342.7105,8.8449,3.040864,0.1858697,0.27308272,130.8475,07/12.0/2015,2000,g  9.0,4.0
# From MPEC 2015-M77
P/2013 R3-B (Catalina-PANSTARRS),e,0.8972,342.7643,8.7803,3.041073,0.1858506,0.27313660,130.8398,07/12.0/2015,2000,g  9.0,4.0
# From MPC 86230
C/2013 S1 (Catalina),e,83.9625,221.5542,166.0610,13400,0.0000006,0.99978922,0.0000,08/02.8293/2013,2000,g 13.0,4.0
# From MPC 85835
P/2013 T1 (PANSTARRS),e,24.2099,10.1827,346.0915,5.875836,0.0691990,0.62290356,49.1856,07/12.0/2015,2000,g 16.5,4.0
# From MPC 86643
P/2013 T2 (Schwartz),e,9.4762,1.6295,344.3800,3.422524,0.1556626,0.52658429,116.7835,07/12.0/2015,2000,g 16.0,4.0
# From MPC 94671
C/2013 TW5 (Spacewatch),e,31.4096,319.7063,190.4485,336.1549,0.0001599,0.98265266,0.0000,08/18.2778/2014,2000,g  7.5,4.0
# From MPC 88696
P/2013 TL117 (Lemmon),e,9.3647,3.3445,112.2409,3.605018,0.1439935,0.68977067,73.2651,07/12.0/2015,2000,g 17.5,4.0
# From MPC 86643
C/2013 U1 (Catalina),e,23.9403,211.2363,143.1841,11.92804,0.0239249,0.79710470,14.3629,07/12.0/2015,2000,g 13.5,4.0
# From MPC 94671
